[{"OBJECT_NAME":"ONEWEB-0720","OBJECT_ID":"2023-029AR","EPOCH":"2025-10-05T03:38:21.167232","MEAN_MOTION":13.19724514,"ECCENTRICITY":0.0001652,"INCLINATION":87.9276,"RA_OF_ASC_NODE":355.7192,"ARG_OF_PERICENTER":112.2305,"MEAN_ANOMALY":247.9004,"EPHEMERIS_TYPE":0,"CLASSIFICATION_TYPE":"U","NORAD_CAT_ID":55835,"ELEMENT_SET_NO":999,"REV_AT_EPOCH":12520,"BSTAR":-0.00012377,"MEAN_MOTION_DOT":-3.7e-7,"MEAN_MOTION_DDOT":0},{"OBJECT_NAME":"ONEWEB-0537","OBJECT_ID":"2023-043A","EPOCH":"2025-10-04T23:55:25.031136","MEAN_MOTION":13.16595056,"ECCENTRICITY":0.0002119,"INCLINATION":87.8981,"RA_OF_ASC_NODE":279.614,"ARG_OF_PERICENTER":90.426,"MEAN_ANOMALY":269.7114,"EPHEMERIS_TYPE":0,"CLASSIFICATION_TYPE":"U","NORAD_CAT_ID":56046,"ELEMENT_SET_NO":999,"REV_AT_EPOCH":12538,"BSTAR":0.00027761,"MEAN_MOTION_DOT":1.19e-6,"MEAN_MOTION_DDOT":0},{"OBJECT_NAME":"ONEWEB-0538","OBJECT_ID":"2023-043B","EPOCH":"2025-10-04T18:17:57.972192","MEAN_MOTION":13.16592506,"ECCENTRICITY":0.0002091,"INCLINATION":87.8967,"RA_OF_ASC_NODE":279.671,"ARG_OF_PERICENTER":96.5547,"MEAN_ANOMALY":263.5822,"EPHEMERIS_TYPE":0,"CLASSIFICATION_TYPE":"U","NORAD_CAT_ID":56047,"ELEMENT_SET_NO":999,"REV_AT_EPOCH":12536,"BSTAR":0.00017565,"MEAN_MOTION_DOT":8.0e-7,"MEAN_MOTION_DDOT":0},{"OBJECT_NAME":"ONEWEB-0546","OBJECT_ID":"2023-043C","EPOCH":"2025-10-05T01:17:29.024160","MEAN_MOTION":13.16593573,"ECCENTRICITY":0.0002544,"INCLINATION":87.8979,"RA_OF_ASC_NODE":279.5966,"ARG_OF_PERICENTER":83.5454,"MEAN_ANOMALY":276.5966,"EPHEMERIS_TYPE":0,"CLASSIFICATION_TYPE":"U","NORAD_CAT_ID":56048,"ELEMENT_SET_NO":999,"REV_AT_EPOCH":12539,"BSTAR":6.9517e-5,"MEAN_MOTION_DOT":3.9e-7,"MEAN_MOTION_DDOT":0},{"OBJECT_NAME":"ONEWEB-0547","OBJECT_ID":"2023-043D","EPOCH":"2025-10-05T01:50:43.365984","MEAN_MOTION":13.21826316,"ECCENTRICITY":0.0001864,"INCLINATION":87.9176,"RA_OF_ASC_NODE":294.8795,"ARG_OF_PERICENTER":97.3002,"MEAN_ANOMALY":262.8344,"EPHEMERIS_TYPE":0,"CLASSIFICATION_TYPE":"U","NORAD_CAT_ID":56049,"ELEMENT_SET_NO":999,"REV_AT_EPOCH":12452,"BSTAR":0.00015544,"MEAN_MOTION_DOT":7.7e-7,"MEAN_MOTION_DDOT":0},{"OBJECT_NAME":"ONEWEB-0548","OBJECT_ID":"2023-043E","EPOCH":"2025-10-05T01:53:56.592672","MEAN_MOTION":13.16592054,"ECCENTRICITY":0.0001619,"INCLINATION":87.896,"RA_OF_ASC_NODE":279.6104,"ARG_OF_PERICENTER":76.4373,"MEAN_ANOMALY":283.6938,"EPHEMERIS_TYPE":0,"CLASSIFICATION_TYPE":"U","NORAD_CAT_ID":56050,"ELEMENT_SET_NO":999,"REV_AT_EPOCH":12539,"BSTAR":0.0002796,"MEAN_MOTION_DOT":1.2e-6,"MEAN_MOTION_DDOT":0},{"OBJECT_NAME":"ONEWEB-0549","OBJECT_ID":"2023-043F","EPOCH":"2025-10-05T01:38:14.182080","MEAN_MOTION":13.21825963,"ECCENTRICITY":0.0001934,"INCLINATION":87.9179,"RA_OF_ASC_NODE":294.8965,"ARG_OF_PERICENTER":100.7356,"MEAN_ANOMALY":259.3996,"EPHEMERIS_TYPE":0,"CLASSIFICATION_TYPE":"U","NORAD_CAT_ID":56051,"ELEMENT_SET_NO":999,"REV_AT_EPOCH":12452,"BSTAR":7.2125e-5,"MEAN_MOTION_DOT":4.3e-7,"MEAN_MOTION_DDOT":0},{"OBJECT_NAME":"ONEWEB-0550","OBJECT_ID":"2023-043G","EPOCH":"2025-10-05T01:20:03.854688","MEAN_MOTION":13.2182635,"ECCENTRICITY":0.0001855,"INCLINATION":87.9174,"RA_OF_ASC_NODE":294.8939,"ARG_OF_PERICENTER":87.7724,"MEAN_ANOMALY":272.3623,"EPHEMERIS_TYPE":0,"CLASSIFICATION_TYPE":"U","NORAD_CAT_ID":56052,"ELEMENT_SET_NO":999,"REV_AT_EPOCH":12452,"BSTAR":0.00026792,"MEAN_MOTION_DOT":1.24e-6,"MEAN_MOTION_DDOT":0},{"OBJECT_NAME":"ONEWEB-0551","OBJECT_ID":"2023-043H","EPOCH":"2025-10-05T01:24:54.009216","MEAN_MOTION":13.15547761,"ECCENTRICITY":0.000183,"INCLINATION":87.899,"RA_OF_ASC_NODE":310.151,"ARG_OF_PERICENTER":102.2285,"MEAN_ANOMALY":257.905,"EPHEMERIS_TYPE":0,"CLASSIFICATION_TYPE":"U","NORAD_CAT_ID":56053,"ELEMENT_SET_NO":999,"REV_AT_EPOCH":12285,"BSTAR":0.00017404,"MEAN_MOTION_DOT":7.8e-7,"MEAN_MOTION_DDOT":0},{"OBJECT_NAME":"ONEWEB-0552","OBJECT_ID":"2023-043J","EPOCH":"2025-10-05T02:59:57.141024","MEAN_MOTION":13.21827186,"ECCENTRICITY":0.000166,"INCLINATION":87.9173,"RA_OF_ASC_NODE":294.8884,"ARG_OF_PERICENTER":99.4749,"MEAN_ANOMALY":260.6573,"EPHEMERIS_TYPE":0,"CLASSIFICATION_TYPE":"U","NORAD_CAT_ID":56054,"ELEMENT_SET_NO":999,"REV_AT_EPOCH":12453,"BSTAR":8.5639e-5,"MEAN_MOTION_DOT":4.8e-7,"MEAN_MOTION_DDOT":0},{"OBJECT_NAME":"ONEWEB-0553","OBJECT_ID":"2023-043K","EPOCH":"2025-10-05T01:26:36.184128","MEAN_MOTION":13.16593316,"ECCENTRICITY":0.0002154,"INCLINATION":87.8969,"RA_OF_ASC_NODE":279.6094,"ARG_OF_PERICENTER":82.6322,"MEAN_ANOMALY":277.5054,"EPHEMERIS_TYPE":0,"CLASSIFICATION_TYPE":"U","NORAD_CAT_ID":56055,"ELEMENT_SET_NO":999,"REV_AT_EPOCH":12540,"BSTAR":0.00016985,"MEAN_MOTION_DOT":7.8e-7,"MEAN_MOTION_DDOT":0},{"OBJECT_NAME":"ONEWEB-0554","OBJECT_ID":"2023-043L","EPOCH":"2025-10-05T01:08:22.391232","MEAN_MOTION":13.1659512,"ECCENTRICITY":0.0001776,"INCLINATION":87.8957,"RA_OF_ASC_NODE":279.6346,"ARG_OF_PERICENTER":82.974,"MEAN_ANOMALY":277.1593,"EPHEMERIS_TYPE":0,"CLASSIFICATION_TYPE":"U","NORAD_CAT_ID":56056,"ELEMENT_SET_NO":999,"REV_AT_EPOCH":12538,"BSTAR":0.00013298,"MEAN_MOTION_DOT":6.4e-7,"MEAN_MOTION_DDOT":0},{"OBJECT_NAME":"ONEWEB-0555","OBJECT_ID":"2023-043M","EPOCH":"2025-10-05T00:13:38.305632","MEAN_MOTION":13.16593804,"ECCENTRICITY":0.0002358,"INCLINATION":87.8973,"RA_OF_ASC_NODE":279.6143,"ARG_OF_PERICENTER":81.3261,"MEAN_ANOMALY":278.8137,"EPHEMERIS_TYPE":0,"CLASSIFICATION_TYPE":"U","NORAD_CAT_ID":56057,"ELEMENT_SET_NO":999,"REV_AT_EPOCH":12538,"BSTAR":0.00040119,"MEAN_MOTION_DOT":1.66e-6,"MEAN_MOTION_DDOT":0},{"OBJECT_NAME":"ONEWEB-0557","OBJECT_ID":"2023-043N","EPOCH":"2025-10-05T00:34:09.374304","MEAN_MOTION":13.16594406,"ECCENTRICITY":0.0002262,"INCLINATION":87.8959,"RA_OF_ASC_NODE":279.6276,"ARG_OF_PERICENTER":54.1289,"MEAN_ANOMALY":306.0052,"EPHEMERIS_TYPE":0,"CLASSIFICATION_TYPE":"U","NORAD_CAT_ID":56058,"ELEMENT_SET_NO":999,"REV_AT_EPOCH":12538,"BSTAR":0.0001173,"MEAN_MOTION_DOT":5.8e-7,"MEAN_MOTION_DDOT":0},{"OBJECT_NAME":"ONEWEB-0558","OBJECT_ID":"2023-043P","EPOCH":"2025-10-05T02:50:54.237120","MEAN_MOTION":13.2182615,"ECCENTRICITY":0.0001923,"INCLINATION":87.9174,"RA_OF_ASC_NODE":294.8845,"ARG_OF_PERICENTER":105.8654,"MEAN_ANOMALY":254.2692,"EPHEMERIS_TYPE":0,"CLASSIFICATION_TYPE":"U","NORAD_CAT_ID":56059,"ELEMENT_SET_NO":999,"REV_AT_EPOCH":12454,"BSTAR":9.6588e-5,"MEAN_MOTION_DOT":5.3e-7,"MEAN_MOTION_DDOT":0},{"OBJECT_NAME":"ONEWEB-0559","OBJECT_ID":"2023-043Q","EPOCH":"2025-10-05T02:35:00.695616","MEAN_MOTION":13.21822658,"ECCENTRICITY":0.0001597,"INCLINATION":87.9173,"RA_OF_ASC_NODE":294.8795,"ARG_OF_PERICENTER":100.4178,"MEAN_ANOMALY":259.7136,"EPHEMERIS_TYPE":0,"CLASSIFICATION_TYPE":"U","NORAD_CAT_ID":56060,"ELEMENT_SET_NO":999,"REV_AT_EPOCH":12455,"BSTAR":0.0014839,"MEAN_MOTION_DOT":6.26e-6,"MEAN_MOTION_DDOT":0},{"OBJECT_NAME":"ONEWEB-0566","OBJECT_ID":"2023-043R","EPOCH":"2025-10-05T02:25:55.528896","MEAN_MOTION":13.21825658,"ECCENTRICITY":0.0001804,"INCLINATION":87.9175,"RA_OF_ASC_NODE":294.8785,"ARG_OF_PERICENTER":101.7285,"MEAN_ANOMALY":258.4051,"EPHEMERIS_TYPE":0,"CLASSIFICATION_TYPE":"U","NORAD_CAT_ID":56061,"ELEMENT_SET_NO":999,"REV_AT_EPOCH":12453,"BSTAR":2.6948e-5,"MEAN_MOTION_DOT":2.4e-7,"MEAN_MOTION_DDOT":0}]
