ONEWEB-0720             
1 55835U 23029AR  25278.15163388 -.00000037  00000+0 -12377-3 0  9995
2 55835  87.9276 355.7192 0001652 112.2305 247.9004 13.19724514125200
ONEWEB-0537             
1 56046U 23043A   25277.99681749  .00000119  00000+0  27761-3 0  9995
2 56046  87.8981 279.6140 0002119  90.4260 269.7114 13.16595056125387
ONEWEB-0538             
1 56047U 23043B   25277.76247653  .00000080  00000+0  17565-3 0  9991
2 56047  87.8967 279.6710 0002091  96.5547 263.5822 13.16592506125362
ONEWEB-0546             
1 56048U 23043C   25278.05380815  .00000039  00000+0  69517-4 0  9992
2 56048  87.8979 279.5966 0002544  83.5454 276.5966 13.16593573125395
ONEWEB-0547             
1 56049U 23043D   25278.07689081  .00000077  00000+0  15544-3 0  9994
2 56049  87.9176 294.8795 0001864  97.3002 262.8344 13.21826316124524
ONEWEB-0548             
1 56050U 23043E   25278.07912723  .00000120  00000+0  27960-3 0  9992
2 56050  87.8960 279.6104 0001619  76.4373 283.6938 13.16592054125397
ONEWEB-0549             
1 56051U 23043F   25278.06821970  .00000043  00000+0  72125-4 0  9993
2 56051  87.9179 294.8965 0001934 100.7356 259.3996 13.21825963124529
ONEWEB-0550             
1 56052U 23043G   25278.05560017  .00000124  00000+0  26792-3 0  9993
2 56052  87.9174 294.8939 0001855  87.7724 272.3623 13.21826350124524
ONEWEB-0551             
1 56053U 23043H   25278.05895844  .00000078  00000+0  17404-3 0  9991
2 56053  87.8990 310.1510 0001830 102.2285 257.9050 13.15547761122851
ONEWEB-0552             
1 56054U 23043J   25278.12496691  .00000048  00000+0  85639-4 0  9990
2 56054  87.9173 294.8884 0001660  99.4749 260.6573 13.21827186124538
ONEWEB-0553             
1 56055U 23043K   25278.06014102  .00000078  00000+0  16985-3 0  9997
2 56055  87.8969 279.6094 0002154  82.6322 277.5054 13.16593316125402
ONEWEB-0554             
1 56056U 23043L   25278.04748138  .00000064  00000+0  13298-3 0  9998
2 56056  87.8957 279.6346 0001776  82.9740 277.1593 13.16595120125382
ONEWEB-0555             
1 56057U 23043M   25278.00947113  .00000166  00000+0  40119-3 0  9994
2 56057  87.8973 279.6143 0002358  81.3261 278.8137 13.16593804125383
ONEWEB-0557             
1 56058U 23043N   25278.02371961  .00000058  00000+0  11730-3 0  9996
2 56058  87.8959 279.6276 0002262  54.1289 306.0052 13.16594406125386
ONEWEB-0558             
1 56059U 23043P   25278.11868330  .00000053  00000+0  96588-4 0  9998
2 56059  87.9174 294.8845 0001923 105.8654 254.2692 13.21826150124542
ONEWEB-0559             
1 56060U 23043Q   25278.10764694  .00000626  00000+0  14839-2 0  9990
2 56060  87.9173 294.8795 0001597 100.4178 259.7136 13.21822658124559
ONEWEB-0566             
1 56061U 23043R   25278.10133714  .00000024  00000+0  26948-4 0  9992
2 56061  87.9175 294.8785 0001804 101.7285 258.4051 13.21825658124538
